[{"OBJECT_NAME":"STARLINK-1964","OBJECT_ID":"2021-009T","EPOCH":"2026-03-09T21:31:58.383264","MEAN_MOTION":15.67134759,"ECCENTRICITY":0.00046841,"INCLINATION":53.045,"RA_OF_ASC_NODE":328.1813,"ARG_OF_PERICENTER":312.9393,"MEAN_ANOMALY":47.1229,"EPHEMERIS_TYPE":0,"CLASSIFICATION_TYPE":"U","NORAD_CAT_ID":47565,"ELEMENT_SET_NO":999,"REV_AT_EPOCH":28156,"BSTAR":0.00093079288,"MEAN_MOTION_DOT":0.00102212,"MEAN_MOTION_DDOT":0},{"OBJECT_NAME":"BANE","OBJECT_ID":"2023-185D","EPOCH":"2026-03-09T22:38:54.916224","MEAN_MOTION":15.6846319,"ECCENTRICITY":0.00050193,"INCLINATION":97.3445,"RA_OF_ASC_NODE":151.472,"ARG_OF_PERICENTER":176.385,"MEAN_ANOMALY":183.7448,"EPHEMERIS_TYPE":0,"CLASSIFICATION_TYPE":"U","NORAD_CAT_ID":58465,"ELEMENT_SET_NO":999,"REV_AT_EPOCH":12713,"BSTAR":0.00097597303,"MEAN_MOTION_DOT":0.00111172,"MEAN_MOTION_DDOT":0}]
